ONEWEB-0634             
1 56075U 23043AF  25365.36643006 -.00000131  00000+0 -38135-3 0  9993
2 56075  87.9008 292.7243 0001389  78.9376 281.1910 13.15547513134338
ONEWEB-0635             
1 56076U 23043AG  25365.36167892 -.00000094  00000+0 -28252-3 0  9995
2 56076  87.9004 292.6784 0001994  75.8334 284.3017 13.15547875134363
ONEWEB-0636             
1 56077U 23043AH  25365.35375713  .00000029  00000+0  42241-4 0  9999
2 56077  87.9001 292.6973 0001895  80.6056 279.5289 13.15548636134347
ONEWEB-0637             
1 56078U 23043AJ  25365.34741295  .00000038  00000+0  68126-4 0  9991
2 56078  87.9007 292.7155 0001761  83.2138 276.9192 13.15549344134362
ONEWEB-0647             
1 56079U 23043AK  25365.34266797  .00000110  00000+0  25759-3 0  9996
2 56079  87.9004 292.7297 0001854  70.3007 289.8323 13.15547741134359
ONEWEB-0651             
1 56080U 23043AL  25365.33791720  .00000169  00000+0  41485-3 0  9994
2 56080  87.9008 292.7237 0001886  80.0893 280.0450 13.15547605135551
ONEWEB-0718             
1 56081U 23043AM  25365.25709389  .00000162  00000+0  39691-3 0  9995
2 56081  87.9006 292.7204 0001130  80.8150 279.3108 13.15550287134358
ONEWEB-0561             
1 56710U 23068A   25365.32073535 -.00000005  00000+0 -43202-4 0  9998
2 56710  87.9211 307.9306 0002204  74.4689 285.6688 13.20771199127343
